PLEIADES 1A             
1 38012U 11076F   26204.34978076  .00000129  00000+0  37670-4 0  9995
2 38012  98.1961 278.9641 0001564  78.4908 354.8792 14.58549657777260
PLEIADES 1B             
1 39019U 12068A   26204.30126063  .00000055  00000+0  21644-4 0  9994
2 39019  98.1931 278.8526 0001454  78.5056 281.6307 14.58536890726111
